STARLINK-37057          
1 68161U 26049V   26090.11302969  .00159785  00000+0  81658-3 0  9996
2 68161  97.2843 110.4587 0001309  99.8069 260.3347 15.80900623  2794
STARLINK-37013          
1 68162U 26049W   26090.04446855  .00081840  00000+0  42283-3 0  9999
2 68162  97.2850 110.3978 0001716  67.0237 293.1213 15.80876327  2780
STARLINK-36958          
1 68163U 26049X   26090.04597288  .00150570  00000+0  77067-3 0  9992
2 68163  97.2850 110.3970 0002133  18.0997 342.0347 15.80890095  2786
STARLINK-37002          
1 68164U 26049Y   26090.11002365  .00169995  00000+0  86790-3 0  9992
2 68164  97.2846 110.4626 0001412  42.4899 317.6478 15.80895320  2792
STARLINK-36971          
1 68165U 26049Z   26090.16667824 -.01925995  00000+0 -13584-1 0  9997
2 68165  97.2850 110.5258 0001095  84.4610 240.7261 15.77209970  4079
STARLINK-36273          
1 68166U 26049AA  26090.12242261  .00157814  00000+0  10367-2 0  9999
2 68166  97.2848 110.4467 0001217  60.8434 299.2953 15.75252958  2792
STARLINK-36969          
1 68167U 26050A   26090.12032210  .00116041  00000+0  58285-3 0  9992
2 68167  53.1583 174.4406 0001111  10.1703 349.9342 15.80900508  3864
STARLINK-36984          
1 68168U 26050B   26090.11957313  .00142666  00000+0  71305-3 0  9992
2 68168  53.1588 174.4354 0000674  11.5155 348.5883 15.80916169  3866
STARLINK-37077          
1 68169U 26050C   26090.11882028  .00091311  00000+0  46083-3 0  9998
2 68169  53.1588 174.4301 0001596   7.1159 352.9886 15.80893863  3865
STARLINK-37003          
1 68170U 26050D   26090.11807301  .00160142  00000+0  79852-3 0  9990
2 68170  53.1586 174.4251 0000315  31.4765 328.6277 15.80911080  3866
STARLINK-37034          
1 68171U 26050E   26090.11732163  .00128620  00000+0  64455-3 0  9992
2 68171  53.1588 174.4200 0001219  15.6124 344.4936 15.80905721  3863
STARLINK-37031          
1 68172U 26050F   26090.11657429  .00194036  00000+0  96221-3 0  9994
2 68172  53.1584 174.4146 0000570  22.7413 337.3635 15.80928619  3866
