CCSDS_OMM_VERS = 2.0
CREATION_DATE  = 
ORIGINATOR     = 

OBJECT_NAME    = STARLINK-37057
OBJECT_ID      = 2026-049V
CENTER_NAME    = EARTH
REF_FRAME      = TEME
TIME_SYSTEM    = UTC
MEAN_ELEMENT_THEORY = SGP/SGP4

EPOCH          = 2026-03-31T02:42:45.765216
MEAN_MOTION    = 15.80900623
ECCENTRICITY   = .0001309
INCLINATION    = 97.2843
RA_OF_ASC_NODE = 110.4587
ARG_OF_PERICENTER = 99.8069
MEAN_ANOMALY   = 260.3347

EPHEMERIS_TYPE = 0
CLASSIFICATION_TYPE = U
NORAD_CAT_ID   = 68161
ELEMENT_SET_NO = 999
REV_AT_EPOCH   = 279
BSTAR          = .81658E-3
MEAN_MOTION_DOT = .159785E-2
MEAN_MOTION_DDOT = 0

CCSDS_OMM_VERS = 2.0
CREATION_DATE  = 
ORIGINATOR     = 

OBJECT_NAME    = STARLINK-37013
OBJECT_ID      = 2026-049W
CENTER_NAME    = EARTH
REF_FRAME      = TEME
TIME_SYSTEM    = UTC
MEAN_ELEMENT_THEORY = SGP/SGP4

EPOCH          = 2026-03-31T01:04:02.082720
MEAN_MOTION    = 15.80876327
ECCENTRICITY   = .0001716
INCLINATION    = 97.2850
RA_OF_ASC_NODE = 110.3978
ARG_OF_PERICENTER = 67.0237
MEAN_ANOMALY   = 293.1213

EPHEMERIS_TYPE = 0
CLASSIFICATION_TYPE = U
NORAD_CAT_ID   = 68162
ELEMENT_SET_NO = 999
REV_AT_EPOCH   = 278
BSTAR          = .42283E-3
MEAN_MOTION_DOT = .8184E-3
MEAN_MOTION_DDOT = 0

CCSDS_OMM_VERS = 2.0
CREATION_DATE  = 
ORIGINATOR     = 

OBJECT_NAME    = STARLINK-36958
OBJECT_ID      = 2026-049X
CENTER_NAME    = EARTH
REF_FRAME      = TEME
TIME_SYSTEM    = UTC
MEAN_ELEMENT_THEORY = SGP/SGP4

EPOCH          = 2026-03-31T01:06:12.056832
MEAN_MOTION    = 15.80890095
ECCENTRICITY   = .0002133
INCLINATION    = 97.2850
RA_OF_ASC_NODE = 110.3970
ARG_OF_PERICENTER = 18.0997
MEAN_ANOMALY   = 342.0347

EPHEMERIS_TYPE = 0
CLASSIFICATION_TYPE = U
NORAD_CAT_ID   = 68163
ELEMENT_SET_NO = 999
REV_AT_EPOCH   = 278
BSTAR          = .77067E-3
MEAN_MOTION_DOT = .15057E-2
MEAN_MOTION_DDOT = 0

CCSDS_OMM_VERS = 2.0
CREATION_DATE  = 
ORIGINATOR     = 

OBJECT_NAME    = STARLINK-37002
OBJECT_ID      = 2026-049Y
CENTER_NAME    = EARTH
REF_FRAME      = TEME
TIME_SYSTEM    = UTC
MEAN_ELEMENT_THEORY = SGP/SGP4

EPOCH          = 2026-03-31T02:38:26.043360
MEAN_MOTION    = 15.80895320
ECCENTRICITY   = .0001412
INCLINATION    = 97.2846
RA_OF_ASC_NODE = 110.4626
ARG_OF_PERICENTER = 42.4899
MEAN_ANOMALY   = 317.6478

EPHEMERIS_TYPE = 0
CLASSIFICATION_TYPE = U
NORAD_CAT_ID   = 68164
ELEMENT_SET_NO = 999
REV_AT_EPOCH   = 279
BSTAR          = .8679E-3
MEAN_MOTION_DOT = .169995E-2
MEAN_MOTION_DDOT = 0

CCSDS_OMM_VERS = 2.0
CREATION_DATE  = 
ORIGINATOR     = 

OBJECT_NAME    = STARLINK-36971
OBJECT_ID      = 2026-049Z
CENTER_NAME    = EARTH
REF_FRAME      = TEME
TIME_SYSTEM    = UTC
MEAN_ELEMENT_THEORY = SGP/SGP4

EPOCH          = 2026-03-31T04:00:00.999936
MEAN_MOTION    = 15.77209970
ECCENTRICITY   = .0001095
INCLINATION    = 97.2850
RA_OF_ASC_NODE = 110.5258
ARG_OF_PERICENTER = 84.4610
MEAN_ANOMALY   = 240.7261

EPHEMERIS_TYPE = 0
CLASSIFICATION_TYPE = U
NORAD_CAT_ID   = 68165
ELEMENT_SET_NO = 999
REV_AT_EPOCH   = 407
BSTAR          = -.13584E-1
MEAN_MOTION_DOT = -.1925995E-1
MEAN_MOTION_DDOT = 0

CCSDS_OMM_VERS = 2.0
CREATION_DATE  = 
ORIGINATOR     = 

OBJECT_NAME    = STARLINK-36273
OBJECT_ID      = 2026-049AA
CENTER_NAME    = EARTH
REF_FRAME      = TEME
TIME_SYSTEM    = UTC
MEAN_ELEMENT_THEORY = SGP/SGP4

EPOCH          = 2026-03-31T02:56:17.313504
MEAN_MOTION    = 15.75252958
ECCENTRICITY   = .0001217
INCLINATION    = 97.2848
RA_OF_ASC_NODE = 110.4467
ARG_OF_PERICENTER = 60.8434
MEAN_ANOMALY   = 299.2953

EPHEMERIS_TYPE = 0
CLASSIFICATION_TYPE = U
NORAD_CAT_ID   = 68166
ELEMENT_SET_NO = 999
REV_AT_EPOCH   = 279
BSTAR          = .10367E-2
MEAN_MOTION_DOT = .157814E-2
MEAN_MOTION_DDOT = 0

CCSDS_OMM_VERS = 2.0
CREATION_DATE  = 
ORIGINATOR     = 

OBJECT_NAME    = STARLINK-36969
OBJECT_ID      = 2026-050A
CENTER_NAME    = EARTH
REF_FRAME      = TEME
TIME_SYSTEM    = UTC
MEAN_ELEMENT_THEORY = SGP/SGP4

EPOCH          = 2026-03-31T02:53:15.829440
MEAN_MOTION    = 15.80900508
ECCENTRICITY   = .0001111
INCLINATION    = 53.1583
RA_OF_ASC_NODE = 174.4406
ARG_OF_PERICENTER = 10.1703
MEAN_ANOMALY   = 349.9342

EPHEMERIS_TYPE = 0
CLASSIFICATION_TYPE = U
NORAD_CAT_ID   = 68167
ELEMENT_SET_NO = 999
REV_AT_EPOCH   = 386
BSTAR          = .58285E-3
MEAN_MOTION_DOT = .116041E-2
MEAN_MOTION_DDOT = 0

CCSDS_OMM_VERS = 2.0
CREATION_DATE  = 
ORIGINATOR     = 

OBJECT_NAME    = STARLINK-36984
OBJECT_ID      = 2026-050B
CENTER_NAME    = EARTH
REF_FRAME      = TEME
TIME_SYSTEM    = UTC
MEAN_ELEMENT_THEORY = SGP/SGP4

EPOCH          = 2026-03-31T02:52:11.118432
MEAN_MOTION    = 15.80916169
ECCENTRICITY   = .0000674
INCLINATION    = 53.1588
RA_OF_ASC_NODE = 174.4354
ARG_OF_PERICENTER = 11.5155
MEAN_ANOMALY   = 348.5883

EPHEMERIS_TYPE = 0
CLASSIFICATION_TYPE = U
NORAD_CAT_ID   = 68168
ELEMENT_SET_NO = 999
REV_AT_EPOCH   = 386
BSTAR          = .71305E-3
MEAN_MOTION_DOT = .142666E-2
MEAN_MOTION_DDOT = 0

CCSDS_OMM_VERS = 2.0
CREATION_DATE  = 
ORIGINATOR     = 

OBJECT_NAME    = STARLINK-37077
OBJECT_ID      = 2026-050C
CENTER_NAME    = EARTH
REF_FRAME      = TEME
TIME_SYSTEM    = UTC
MEAN_ELEMENT_THEORY = SGP/SGP4

EPOCH          = 2026-03-31T02:51:06.072192
MEAN_MOTION    = 15.80893863
ECCENTRICITY   = .0001596
INCLINATION    = 53.1588
RA_OF_ASC_NODE = 174.4301
ARG_OF_PERICENTER = 7.1159
MEAN_ANOMALY   = 352.9886

EPHEMERIS_TYPE = 0
CLASSIFICATION_TYPE = U
NORAD_CAT_ID   = 68169
ELEMENT_SET_NO = 999
REV_AT_EPOCH   = 386
BSTAR          = .46083E-3
MEAN_MOTION_DOT = .91311E-3
MEAN_MOTION_DDOT = 0

CCSDS_OMM_VERS = 2.0
CREATION_DATE  = 
ORIGINATOR     = 

OBJECT_NAME    = STARLINK-37003
OBJECT_ID      = 2026-050D
CENTER_NAME    = EARTH
REF_FRAME      = TEME
TIME_SYSTEM    = UTC
MEAN_ELEMENT_THEORY = SGP/SGP4

EPOCH          = 2026-03-31T02:50:01.508064
MEAN_MOTION    = 15.80911080
ECCENTRICITY   = .0000315
INCLINATION    = 53.1586
RA_OF_ASC_NODE = 174.4251
ARG_OF_PERICENTER = 31.4765
MEAN_ANOMALY   = 328.6277

EPHEMERIS_TYPE = 0
CLASSIFICATION_TYPE = U
NORAD_CAT_ID   = 68170
ELEMENT_SET_NO = 999
REV_AT_EPOCH   = 386
BSTAR          = .79852E-3
MEAN_MOTION_DOT = .160142E-2
MEAN_MOTION_DDOT = 0

CCSDS_OMM_VERS = 2.0
CREATION_DATE  = 
ORIGINATOR     = 

OBJECT_NAME    = STARLINK-37034
OBJECT_ID      = 2026-050E
CENTER_NAME    = EARTH
REF_FRAME      = TEME
TIME_SYSTEM    = UTC
MEAN_ELEMENT_THEORY = SGP/SGP4

EPOCH          = 2026-03-31T02:48:56.588832
MEAN_MOTION    = 15.80905721
ECCENTRICITY   = .0001219
INCLINATION    = 53.1588
RA_OF_ASC_NODE = 174.4200
ARG_OF_PERICENTER = 15.6124
MEAN_ANOMALY   = 344.4936

EPHEMERIS_TYPE = 0
CLASSIFICATION_TYPE = U
NORAD_CAT_ID   = 68171
ELEMENT_SET_NO = 999
REV_AT_EPOCH   = 386
BSTAR          = .64455E-3
MEAN_MOTION_DOT = .12862E-2
MEAN_MOTION_DDOT = 0

CCSDS_OMM_VERS = 2.0
CREATION_DATE  = 
ORIGINATOR     = 

OBJECT_NAME    = STARLINK-37031
OBJECT_ID      = 2026-050F
CENTER_NAME    = EARTH
REF_FRAME      = TEME
TIME_SYSTEM    = UTC
MEAN_ELEMENT_THEORY = SGP/SGP4

EPOCH          = 2026-03-31T02:47:52.018656
MEAN_MOTION    = 15.80928619
ECCENTRICITY   = .000057
INCLINATION    = 53.1584
RA_OF_ASC_NODE = 174.4146
ARG_OF_PERICENTER = 22.7413
MEAN_ANOMALY   = 337.3635

EPHEMERIS_TYPE = 0
CLASSIFICATION_TYPE = U
NORAD_CAT_ID   = 68172
ELEMENT_SET_NO = 999
REV_AT_EPOCH   = 386
BSTAR          = .96221E-3
MEAN_MOTION_DOT = .194036E-2
MEAN_MOTION_DDOT = 0

